CCSDS_OMM_VERS = 2.0
CREATION_DATE  = 
ORIGINATOR     = 

OBJECT_NAME    = SL-14 R/B
OBJECT_ID      = 1986-046B
CENTER_NAME    = EARTH
REF_FRAME      = TEME
TIME_SYSTEM    = UTC
MEAN_ELEMENT_THEORY = SGP/SGP4

EPOCH          = 2026-03-28T09:32:00.142368
MEAN_MOTION    = 14.85608172
ECCENTRICITY   = .00235094
INCLINATION    = 82.4802
RA_OF_ASC_NODE = 62.5007
ARG_OF_PERICENTER = 162.4824
MEAN_ANOMALY   = 197.7209

EPHEMERIS_TYPE = 0
CLASSIFICATION_TYPE = U
NORAD_CAT_ID   = 16792
ELEMENT_SET_NO = 999
REV_AT_EPOCH   = 12918
BSTAR          = .60589533E-4
MEAN_MOTION_DOT = .551E-5
MEAN_MOTION_DDOT = 0

CCSDS_OMM_VERS = 2.0
CREATION_DATE  = 
ORIGINATOR     = 

OBJECT_NAME    = SL-14 R/B
OBJECT_ID      = 1986-055B
CENTER_NAME    = EARTH
REF_FRAME      = TEME
TIME_SYSTEM    = UTC
MEAN_ELEMENT_THEORY = SGP/SGP4

EPOCH          = 2026-03-28T12:53:14.220960
MEAN_MOTION    = 14.85658913
ECCENTRICITY   = .00173012
INCLINATION    = 82.5171
RA_OF_ASC_NODE = 108.9546
ARG_OF_PERICENTER = 269.8370
MEAN_ANOMALY   = 205.7521

EPHEMERIS_TYPE = 0
CLASSIFICATION_TYPE = U
NORAD_CAT_ID   = 16882
ELEMENT_SET_NO = 999
REV_AT_EPOCH   = 12216
BSTAR          = .50445557E-4
MEAN_MOTION_DOT = .462E-5
MEAN_MOTION_DDOT = 0

CCSDS_OMM_VERS = 2.0
CREATION_DATE  = 
ORIGINATOR     = 

OBJECT_NAME    = AJISAI (EGS)
OBJECT_ID      = 1986-061A
CENTER_NAME    = EARTH
REF_FRAME      = TEME
TIME_SYSTEM    = UTC
MEAN_ELEMENT_THEORY = SGP/SGP4

EPOCH          = 2026-03-28T14:38:56.172768
MEAN_MOTION    = 12.44515628
ECCENTRICITY   = .00113315
INCLINATION    = 50.0112
RA_OF_ASC_NODE = 35.1652
ARG_OF_PERICENTER = 335.7889
MEAN_ANOMALY   = 195.5275

EPHEMERIS_TYPE = 0
CLASSIFICATION_TYPE = U
NORAD_CAT_ID   = 16908
ELEMENT_SET_NO = 999
REV_AT_EPOCH   = 47035
BSTAR          = -.11735866E-4
MEAN_MOTION_DOT = -.99E-6
MEAN_MOTION_DDOT = 0

CCSDS_OMM_VERS = 2.0
CREATION_DATE  = 
ORIGINATOR     = 

OBJECT_NAME    = SL-14 R/B
OBJECT_ID      = 1987-024B
CENTER_NAME    = EARTH
REF_FRAME      = TEME
TIME_SYSTEM    = UTC
MEAN_ELEMENT_THEORY = SGP/SGP4

EPOCH          = 2026-03-28T10:10:16.604256
MEAN_MOTION    = 14.86149648
ECCENTRICITY   = .00177756
INCLINATION    = 82.5252
RA_OF_ASC_NODE = 75.1502
ARG_OF_PERICENTER = 193.8891
MEAN_ANOMALY   = 166.1840

EPHEMERIS_TYPE = 0
CLASSIFICATION_TYPE = U
NORAD_CAT_ID   = 17567
ELEMENT_SET_NO = 999
REV_AT_EPOCH   = 9091
BSTAR          = .58160323E-4
MEAN_MOTION_DOT = .536E-5
MEAN_MOTION_DDOT = 0

CCSDS_OMM_VERS = 2.0
CREATION_DATE  = 
ORIGINATOR     = 

OBJECT_NAME    = COSMOS 1833
OBJECT_ID      = 1987-027A
CENTER_NAME    = EARTH
REF_FRAME      = TEME
TIME_SYSTEM    = UTC
MEAN_ELEMENT_THEORY = SGP/SGP4

EPOCH          = 2026-03-28T13:10:15.016224
MEAN_MOTION    = 14.13047617
ECCENTRICITY   = .00232892
INCLINATION    = 70.9171
RA_OF_ASC_NODE = 286.3795
ARG_OF_PERICENTER = 186.7866
MEAN_ANOMALY   = 173.2944

EPHEMERIS_TYPE = 0
CLASSIFICATION_TYPE = U
NORAD_CAT_ID   = 17589
ELEMENT_SET_NO = 999
REV_AT_EPOCH   = 1298
BSTAR          = -.12329056E-3
MEAN_MOTION_DOT = -.279E-5
MEAN_MOTION_DDOT = 0

CCSDS_OMM_VERS = 2.0
CREATION_DATE  = 
ORIGINATOR     = 

OBJECT_NAME    = SL-16 R/B
OBJECT_ID      = 1987-027B
CENTER_NAME    = EARTH
REF_FRAME      = TEME
TIME_SYSTEM    = UTC
MEAN_ELEMENT_THEORY = SGP/SGP4

EPOCH          = 2026-03-28T14:36:50.344992
MEAN_MOTION    = 14.17165592
ECCENTRICITY   = .00028607
INCLINATION    = 71.0014
RA_OF_ASC_NODE = 236.6234
ARG_OF_PERICENTER = 96.4087
MEAN_ANOMALY   = 263.7363

EPHEMERIS_TYPE = 0
CLASSIFICATION_TYPE = U
NORAD_CAT_ID   = 17590
ELEMENT_SET_NO = 999
REV_AT_EPOCH   = 1802
BSTAR          = .925687E-6
MEAN_MOTION_DOT = -.46E-6
MEAN_MOTION_DDOT = 0

CCSDS_OMM_VERS = 2.0
CREATION_DATE  = 
ORIGINATOR     = 

OBJECT_NAME    = SL-14 R/B
OBJECT_ID      = 1987-038B
CENTER_NAME    = EARTH
REF_FRAME      = TEME
TIME_SYSTEM    = UTC
MEAN_ELEMENT_THEORY = SGP/SGP4

EPOCH          = 2026-03-28T13:30:53.773632
MEAN_MOTION    = 14.85385999
ECCENTRICITY   = .00207461
INCLINATION    = 82.4977
RA_OF_ASC_NODE = 279.0230
ARG_OF_PERICENTER = 101.4600
MEAN_ANOMALY   = 258.8947

EPHEMERIS_TYPE = 0
CLASSIFICATION_TYPE = U
NORAD_CAT_ID   = 17912
ELEMENT_SET_NO = 999
REV_AT_EPOCH   = 8203
BSTAR          = .55608171E-4
MEAN_MOTION_DOT = .505E-5
MEAN_MOTION_DDOT = 0

CCSDS_OMM_VERS = 2.0
CREATION_DATE  = 
ORIGINATOR     = 

OBJECT_NAME    = COSMOS 1844
OBJECT_ID      = 1987-041A
CENTER_NAME    = EARTH
REF_FRAME      = TEME
TIME_SYSTEM    = UTC
MEAN_ELEMENT_THEORY = SGP/SGP4

EPOCH          = 2026-03-28T11:50:10.579200
MEAN_MOTION    = 14.14556294
ECCENTRICITY   = .0031021
INCLINATION    = 70.9014
RA_OF_ASC_NODE = 354.5158
ARG_OF_PERICENTER = 350.4320
MEAN_ANOMALY   = 9.6206

EPHEMERIS_TYPE = 0
CLASSIFICATION_TYPE = U
NORAD_CAT_ID   = 17973
ELEMENT_SET_NO = 999
REV_AT_EPOCH   = 624
BSTAR          = .21722905E-3
MEAN_MOTION_DOT = .371E-5
MEAN_MOTION_DDOT = 0

CCSDS_OMM_VERS = 2.0
CREATION_DATE  = 
ORIGINATOR     = 

OBJECT_NAME    = SL-14 R/B
OBJECT_ID      = 1987-055B
CENTER_NAME    = EARTH
REF_FRAME      = TEME
TIME_SYSTEM    = UTC
MEAN_ELEMENT_THEORY = SGP/SGP4

EPOCH          = 2026-03-28T03:10:51.357504
MEAN_MOTION    = 14.85647373
ECCENTRICITY   = .00195675
INCLINATION    = 82.5008
RA_OF_ASC_NODE = 331.6523
ARG_OF_PERICENTER = 315.9040
MEAN_ANOMALY   = 44.0615

EPHEMERIS_TYPE = 0
CLASSIFICATION_TYPE = U
NORAD_CAT_ID   = 18153
ELEMENT_SET_NO = 999
REV_AT_EPOCH   = 7267
BSTAR          = .44588915E-4
MEAN_MOTION_DOT = .411E-5
MEAN_MOTION_DDOT = 0

CCSDS_OMM_VERS = 2.0
CREATION_DATE  = 
ORIGINATOR     = 

OBJECT_NAME    = COSMOS 1867
OBJECT_ID      = 1987-060A
CENTER_NAME    = EARTH
REF_FRAME      = TEME
TIME_SYSTEM    = UTC
MEAN_ELEMENT_THEORY = SGP/SGP4

EPOCH          = 2026-03-28T13:59:58.552512
MEAN_MOTION    = 14.31505882
ECCENTRICITY   = .00148116
INCLINATION    = 65.0093
RA_OF_ASC_NODE = 253.7909
ARG_OF_PERICENTER = 279.7247
MEAN_ANOMALY   = 80.2164

EPHEMERIS_TYPE = 0
CLASSIFICATION_TYPE = U
NORAD_CAT_ID   = 18187
ELEMENT_SET_NO = 999
REV_AT_EPOCH   = 2264
BSTAR          = .32059405E-4
MEAN_MOTION_DOT = -.15E-6
MEAN_MOTION_DDOT = 0

CCSDS_OMM_VERS = 2.0
CREATION_DATE  = 
ORIGINATOR     = 

OBJECT_NAME    = SL-14 R/B
OBJECT_ID      = 1988-001B
CENTER_NAME    = EARTH
REF_FRAME      = TEME
TIME_SYSTEM    = UTC
MEAN_ELEMENT_THEORY = SGP/SGP4

EPOCH          = 2026-03-28T14:24:58.460832
MEAN_MOTION    = 14.85548262
ECCENTRICITY   = .00183194
INCLINATION    = 82.5162
RA_OF_ASC_NODE = 177.5795
ARG_OF_PERICENTER = 171.2143
MEAN_ANOMALY   = 188.9397

EPHEMERIS_TYPE = 0
CLASSIFICATION_TYPE = U
NORAD_CAT_ID   = 18749
ELEMENT_SET_NO = 999
REV_AT_EPOCH   = 4483
BSTAR          = .55487015E-4
MEAN_MOTION_DOT = .505E-5
MEAN_MOTION_DDOT = 0

CCSDS_OMM_VERS = 2.0
CREATION_DATE  = 
ORIGINATOR     = 

OBJECT_NAME    = COSMOS 1933
OBJECT_ID      = 1988-020A
CENTER_NAME    = EARTH
REF_FRAME      = TEME
TIME_SYSTEM    = UTC
MEAN_ELEMENT_THEORY = SGP/SGP4

EPOCH          = 2026-03-28T10:39:27.938304
MEAN_MOTION    = 15.18157158
ECCENTRICITY   = .00051694
INCLINATION    = 82.5121
RA_OF_ASC_NODE = 232.3517
ARG_OF_PERICENTER = 126.0859
MEAN_ANOMALY   = 234.0854

EPHEMERIS_TYPE = 0
CLASSIFICATION_TYPE = U
NORAD_CAT_ID   = 18958
ELEMENT_SET_NO = 999
REV_AT_EPOCH   = 5307
BSTAR          = .22928664E-3
MEAN_MOTION_DOT = .4713E-4
MEAN_MOTION_DDOT = 0

