SL-14 R/B               
1 16792U 86046B   26087.39722387  .00000551  00000+0  60590-4 0  9997
2 16792  82.4802  62.5007 0023509 162.4824 197.7209 14.85608172129185
SL-14 R/B               
1 16882U 86055B   26087.53697015  .00000462  00000+0  50446-4 0  9992
2 16882  82.5171 108.9546 0017301 269.8370 205.7521 14.85658913122165
AJISAI (EGS)            
1 16908U 86061A   26087.61037237 -.00000099  00000+0 -11736-4 0  9998
2 16908  50.0112  35.1652 0011331 335.7889 195.5275 12.44515628470350
SL-14 R/B               
1 17567U 87024B   26087.42380329  .00000536  00000+0  58160-4 0  9998
2 17567  82.5252  75.1502 0017775 193.8891 166.1840 14.86149648 90914
COSMOS 1833             
1 17589U 87027A   26087.54878491 -.00000279  00000+0 -12329-3 0  9992
2 17589  70.9171 286.3795 0023289 186.7866 173.2944 14.13047617 12987
SL-16 R/B               
1 17590U 87027B   26087.60891603 -.00000046  00000+0  92569-6 0  9999
2 17590  71.0014 236.6234 0002860  96.4087 263.7363 14.17165592 18025
SL-14 R/B               
1 17912U 87038B   26087.56312238  .00000505  00000+0  55608-4 0  9996
2 17912  82.4977 279.0230 0020746 101.4600 258.8947 14.85385999 82030
COSMOS 1844             
1 17973U 87041A   26087.49317800  .00000371  00000+0  21723-3 0  9990
2 17973  70.9014 354.5158 0031021 350.4320   9.6206 14.14556294  6241
SL-14 R/B               
1 18153U 87055B   26087.13253886  .00000411  00000+0  44589-4 0  9991
2 18153  82.5008 331.6523 0019567 315.9040  44.0615 14.85647373 72676
COSMOS 1867             
1 18187U 87060A   26087.58331658 -.00000015  00000+0  32059-4 0  9997
2 18187  65.0093 253.7909 0014811 279.7247  80.2164 14.31505882 22640
SL-14 R/B               
1 18749U 88001B   26087.60067663  .00000505  00000+0  55487-4 0  9995
2 18749  82.5162 177.5795 0018319 171.2143 188.9397 14.85548262 44836
COSMOS 1933             
1 18958U 88020A   26087.44407336  .00004713  00000+0  22929-3 0  9994
2 18958  82.5121 232.3517 0005169 126.0859 234.0854 15.18157158 53070
